{
    "links": {
        "self": "http://www.neowsapp.com/rest/v1/neo/3467182?api_key=iIulBulltgU6a56xZRHN4H3l9WmuAYTsLGpBGhQ2"
    },
    "id": "3467182",
    "neo_reference_id": "3467182",
    "name": "(2009 SH)",
    "designation": "2009 SH",
    "nasa_jpl_url": "http://ssd.jpl.nasa.gov/sbdb.cgi?sstr=3467182",
    "absolute_magnitude_h": 24.1,
    "estimated_diameter": {
        "kilometers": {
            "estimated_diameter_min": 0.040230458,
            "estimated_diameter_max": 0.0899580388
        },
        "meters": {
            "estimated_diameter_min": 40.2304579834,
            "estimated_diameter_max": 89.9580388169
        },
        "miles": {
            "estimated_diameter_min": 0.0249980399,
            "estimated_diameter_max": 0.0558973165
        },
        "feet": {
            "estimated_diameter_min": 131.9896957704,
            "estimated_diameter_max": 295.1379320721
        }
    },
    "is_potentially_hazardous_asteroid": false,
    "close_approach_data": [
        {
            "close_approach_date": "2009-09-23",
            "close_approach_date_full": "2009-Sep-23 21:55",
            "epoch_date_close_approach": 1253742900000,
            "relative_velocity": {
                "kilometers_per_second": "12.4791519665",
                "kilometers_per_hour": "44924.9470795534",
                "miles_per_hour": "27914.6150339591"
            },
            "miss_distance": {
                "astronomical": "0.1279915981",
                "lunar": "49.7887316609",
                "kilometers": "19147270.453656047",
                "miles": "11897562.1626135686"
            },
            "orbiting_body": "Earth"
        }
    ],
    "orbital_data": {
        "orbit_id": "8",
        "orbit_determination_date": "2017-04-06 09:00:04",
        "first_observation_date": "2009-09-17",
        "last_observation_date": "2009-09-25",
        "data_arc_in_days": 8,
        "observations_used": 18,
        "orbit_uncertainty": "9",
        "minimum_orbit_intersection": ".127056",
        "jupiter_tisserand_invariant": "3.190",
        "epoch_osculation": "2455093.5",
        "eccentricity": ".5643521312255206",
        "semi_major_axis": "2.458668500054996",
        "inclination": "18.88418748255949",
        "ascending_node_longitude": "350.6696978426102",
        "orbital_period": "1408.148291648807",
        "perihelion_distance": "1.071113692071905",
        "perihelion_argument": "37.24076219566169",
        "aphelion_distance": "3.846223308038088",
        "perihelion_time": "2455123.602866330271",
        "mean_anomaly": "352.3040549470763",
        "mean_motion": ".2556548924108514",
        "equinox": "J2000",
        "orbit_class": {
            "orbit_class_type": "AMO",
            "orbit_class_description": "Near-Earth asteroid orbits similar to that of 1221 Amor",
            "orbit_class_range": "1.017 AU < q (perihelion) < 1.3 AU"
        }
    },
    "is_sentry_object": false
}